{
  "type": "FeatureCollection",
  "features": [
    {
      "type": "Feature",
      "properties": {
        "norad_id": 31307,
        "name": "GALAXY 17 (G-17)",
        "group": "intelsat",
        "lat": 0.5425825513925131,
        "lon": -110.6884178953416,
        "alt_km": 35761.0993580314,
        "timestamp": "2025-12-12T16:50:32.815229+00:00",
        "meta_object_name": "GALAXY 17 (G-17)",
        "meta_object_id": "2007-016B",
        "meta_epoch": "2025-12-12T06:13:37.834752",
        "meta_mean_motion": 1.00272492,
        "meta_eccentricity": 0.00058541,
        "meta_inclination": 2.4992,
        "meta_ra_of_asc_node": 82.2905,
        "meta_arg_of_pericenter": 164.1965,
        "meta_mean_anomaly": 203.146,
        "meta_ephemeris_type": 0,
        "meta_classification_type": "U",
        "meta_norad_cat_id": 31307,
        "meta_element_set_no": 999,
        "meta_rev_at_epoch": 6793,
        "meta_bstar": 0,
        "meta_mean_motion_dot": -1.97e-06,
        "meta_mean_motion_ddot": 0,
        "tle_line1": "1 31307U 07016B   25346.25946568 -.00000197  00000+0  00000+0 0  9999",
        "tle_line2": "2 31307   2.4992  82.2905 0005854 164.1965 203.1460  1.00272492 67930"
      },
      "geometry": {
        "type": "Point",
        "coordinates": [
          -110.6884178953416,
          0.5425825513925131
        ]
      }
    },
    {
      "type": "Feature",
      "properties": {
        "norad_id": 31862,
        "name": "DIRECTV 10",
        "group": "intelsat",
        "lat": 0.005372988517201115,
        "lon": -128.50843816250477,
        "alt_km": 35784.84461893441,
        "timestamp": "2025-12-12T16:50:32.815241+00:00",
        "meta_object_name": "DIRECTV 10",
        "meta_object_id": "2007-032A",
        "meta_epoch": "2025-12-11T14:44:08.030112",
        "meta_mean_motion": 1.00271436,
        "meta_eccentricity": 3.191e-05,
        "meta_inclination": 0.0124,
        "meta_ra_of_asc_node": 167.5307,
        "meta_arg_of_pericenter": 60.5816,
        "meta_mean_anomaly": 330.7109,
        "meta_ephemeris_type": 0,
        "meta_classification_type": "U",
        "meta_norad_cat_id": 31862,
        "meta_element_set_no": 999,
        "meta_rev_at_epoch": 4371,
        "meta_bstar": 0,
        "meta_mean_motion_dot": -9.6e-07,
        "meta_mean_motion_ddot": 0,
        "tle_line1": "1 31862U 07032A   25345.61398183 -.00000096  00000+0  00000+0 0  9994",
        "tle_line2": "2 31862   0.0124 167.5307 0000319  60.5816 330.7109  1.00271436 43719"
      },
      "geometry": {
        "type": "Point",
        "coordinates": [
          -128.50843816250477,
          0.005372988517201115
        ]
      }
    },
    {
      "type": "Feature",
      "properties": {
        "norad_id": 32253,
        "name": "INTELSAT 11 (IS-11)",
        "group": "intelsat",
        "lat": 2.680019923573803,
        "lon": -159.91732878645482,
        "alt_km": 36106.03476410072,
        "timestamp": "2025-12-12T16:50:32.815253+00:00",
        "meta_object_name": "INTELSAT 11 (IS-11)",
        "meta_object_id": "2007-044B",
        "meta_epoch": "2025-12-12T06:00:16.613856",
        "meta_mean_motion": 0.99048636,
        "meta_eccentricity": 0.00089075,
        "meta_inclination": 3.0792,
        "meta_ra_of_asc_node": 80.9819,
        "meta_arg_of_pericenter": 165.6758,
        "meta_mean_anomaly": 152.442,
        "meta_ephemeris_type": 0,
        "meta_classification_type": "U",
        "meta_norad_cat_id": 32253,
        "meta_element_set_no": 999,
        "meta_rev_at_epoch": 6659,
        "meta_bstar": 0,
        "meta_mean_motion_dot": 8e-07,
        "meta_mean_motion_ddot": 0,
        "tle_line1": "1 32253U 07044B   25346.25019229  .00000080  00000+0  00000+0 0  9996",
        "tle_line2": "2 32253   3.0792  80.9819 0008907 165.6758 152.4420  0.99048636 66594"
      },
      "geometry": {
        "type": "Point",
        "coordinates": [
          -159.91732878645482,
          2.680019923573803
        ]
      }
    },
    {
      "type": "Feature",
      "properties": {
        "norad_id": 32388,
        "name": "HORIZONS-2",
        "group": "intelsat",
        "lat": 0.07354731448289684,
        "lon": -99.53090507615909,
        "alt_km": 35766.32173406476,
        "timestamp": "2025-12-12T16:50:32.815264+00:00",
        "meta_object_name": "HORIZONS-2",
        "meta_object_id": "2007-063B",
        "meta_epoch": "2025-12-12T06:16:52.524192",
        "meta_mean_motion": 1.00269956,
        "meta_eccentricity": 0.00049084,
        "meta_inclination": 2.1205,
        "meta_ra_of_asc_node": 82.9663,
        "meta_arg_of_pericenter": 189.6669,
        "meta_mean_anomaly": 189.0005,
        "meta_ephemeris_type": 0,
        "meta_classification_type": "U",
        "meta_norad_cat_id": 32388,
        "meta_element_set_no": 999,
        "meta_rev_at_epoch": 6594,
        "meta_bstar": 0,
        "meta_mean_motion_dot": -2.43e-06,
        "meta_mean_motion_ddot": 0,
        "tle_line1": "1 32388U 07063B   25346.26171903 -.00000243  00000+0  00000+0 0  9997",
        "tle_line2": "2 32388   2.1205  82.9663 0004908 189.6669 189.0005  1.00269956 65941"
      },
      "geometry": {
        "type": "Point",
        "coordinates": [
          -99.53090507615909,
          0.07354731448289684
        ]
      }
    },
    {
      "type": "Feature",
      "properties": {
        "norad_id": 32729,
        "name": "DIRECTV 11",
        "group": "intelsat",
        "lat": -0.008047593564855267,
        "lon": -124.91421014431045,
        "alt_km": 35784.810266057444,
        "timestamp": "2025-12-12T16:50:32.815276+00:00",
        "meta_object_name": "DIRECTV 11",
        "meta_object_id": "2008-013A",
        "meta_epoch": "2025-12-11T21:35:58.588224",
        "meta_mean_motion": 1.00271084,
        "meta_eccentricity": 5.41e-05,
        "meta_inclination": 0.0355,
        "meta_ra_of_asc_node": 183.5345,
        "meta_arg_of_pericenter": 2.2866,
        "meta_mean_anomaly": 119.8352,
        "meta_ephemeris_type": 0,
        "meta_classification_type": "U",
        "meta_norad_cat_id": 32729,
        "meta_element_set_no": 999,
        "meta_rev_at_epoch": 4371,
        "meta_bstar": 0,
        "meta_mean_motion_dot": -1.17e-06,
        "meta_mean_motion_ddot": 0,
        "tle_line1": "1 32729U 08013A   25345.89998366 -.00000117  00000+0  00000+0 0  9990",
        "tle_line2": "2 32729   0.0355 183.5345 0000541   2.2866 119.8352  1.00271084 43718"
      },
      "geometry": {
        "type": "Point",
        "coordinates": [
          -124.91421014431045,
          -0.008047593564855267
        ]
      }
    },
    {
      "type": "Feature",
      "properties": {
        "norad_id": 32951,
        "name": "GALAXY 18 (G-18)",
        "group": "intelsat",
        "lat": -0.03226098817445646,
        "lon": -148.77120623424221,
        "alt_km": 35779.59010389908,
        "timestamp": "2025-12-12T16:50:32.815288+00:00",
        "meta_object_name": "GALAXY 18 (G-18)",
        "meta_object_id": "2008-024A",
        "meta_epoch": "2025-12-12T06:02:46.375296",
        "meta_mean_motion": 1.00270121,
        "meta_eccentricity": 0.0002921,
        "meta_inclination": 0.0202,
        "meta_ra_of_asc_node": 335.0381,
        "meta_arg_of_pericenter": 292.1416,
        "meta_mean_anomaly": 141.6988,
        "meta_ephemeris_type": 0,
        "meta_classification_type": "U",
        "meta_norad_cat_id": 32951,
        "meta_element_set_no": 999,
        "meta_rev_at_epoch": 4397,
        "meta_bstar": 0,
        "meta_mean_motion_dot": 0,
        "meta_mean_motion_ddot": 0,
        "tle_line1": "1 32951U 08024A   25346.25192564  .00000000  00000+0  00000+0 0  9996",
        "tle_line2": "2 32951   0.0202 335.0381 0002921 292.1416 141.6988  1.00270121 43972"
      },
      "geometry": {
        "type": "Point",
        "coordinates": [
          -148.77120623424221,
          -0.03226098817445646
        ]
      }
    },
    {
      "type": "Feature",
      "properties": {
        "norad_id": 33153,
        "name": "INTELSAT 25 (IS-25)",
        "group": "intelsat",
        "lat": -1.448459744939292,
        "lon": -57.196906091734306,
        "alt_km": 35770.231443052704,
        "timestamp": "2025-12-12T16:50:32.815299+00:00",
        "meta_object_name": "INTELSAT 25 (IS-25)",
        "meta_object_id": "2008-034A",
        "meta_epoch": "2025-12-12T06:28:58.865664",
        "meta_mean_motion": 1.00271837,
        "meta_eccentricity": 0.00050272,
        "meta_inclination": 2.2268,
        "meta_ra_of_asc_node": 82.6549,
        "meta_arg_of_pericenter": 179.1825,
        "meta_mean_anomaly": 245.135,
        "meta_ephemeris_type": 0,
        "meta_classification_type": "U",
        "meta_norad_cat_id": 33153,
        "meta_element_set_no": 999,
        "meta_rev_at_epoch": 6382,
        "meta_bstar": 0,
        "meta_mean_motion_dot": -2.14e-06,
        "meta_mean_motion_ddot": 0,
        "tle_line1": "1 33153U 08034A   25346.27012576 -.00000214  00000+0  00000+0 0  9996",
        "tle_line2": "2 33153   2.2268  82.6549 0005027 179.1825 245.1350  1.00271837 63826"
      },
      "geometry": {
        "type": "Point",
        "coordinates": [
          -57.196906091734306,
          -1.448459744939292
        ]
      }
    }
  ]
}